CZ-2D R/B               
1 53878U 22115B   22285.48602655  .00001523  00000+0  24666-3 0  9994
2 53878  98.5458 285.1599 0123702 335.9717  23.5743 14.67966506  3165
SOYUZ-MS 22             
1 53879U 22116A   22284.56067839  .00016241  00000+0  29255-3 0  9995
2 53879  51.6418 120.0355 0003212 288.5573 103.7200 15.49940618363238
2022-118A               
1 53884U 22118A   22285.50314472  .00007717  00000+0  33006-3 0  9993
2 53884  97.5208 292.0333 0014430 193.5738 317.8073 15.23021509  2673
2022-118B               
1 53885U 22118B   22285.49580918  .00010264  00000+0  42949-3 0  9999
2 53885  97.5208 292.0432 0011690 200.2464 312.0744 15.23704603  2665
STARLINK-5028           
1 53886U 22119A   22285.58334491 -.00107422  00000+0 -77159-3 0  9990
2 53886  53.2170 165.8104 0001165 109.4708 193.8082 15.73175840  1303
STARLINK-5029           
1 53887U 22119B   22285.58334491 -.00088171  00000+0 -63231-3 0  9996
2 53887  53.2167 165.8060 0001091  92.7731 212.3516 15.73130446  1301
STARLINK-5034           
1 53888U 22119C   22285.58334491  .00086225  00000+0  61187-3 0  9991
2 53888  53.2170 165.8101 0001341 309.7920 353.8684 15.73223541  1307
STARLINK-5031           
1 53889U 22119D   22285.58334491  .00097541  00000+0  69326-3 0  9998
2 53889  53.2172 165.8053 0001622  67.9792 236.4123 15.73135498  1305
STARLINK-5050           
1 53890U 22119E   22285.58334491 -.01198457  00000+0 -68490-2 0  9991
2 53890  53.2173 164.7052 0001090  88.3346  42.2343 15.80805282  1306
STARLINK-5041           
1 53891U 22119F   22285.58334491 -.00101479  00000+0 -72547-3 0  9998
2 53891  53.2168 165.8048 0001080  98.9026 207.2163 15.73261638  1305
STARLINK-5046           
1 53892U 22119G   22285.58334491 -.00010330  00000+0 -69055-4 0  9995
2 53892  53.2176 165.7994 0001978  27.0849 281.9396 15.73267567  1300
STARLINK-5052           
1 53893U 22119H   22285.58334491 -.00029047  00000+0 -20275-3 0  9991
2 53893  53.2166 165.8005 0001551 140.9168 166.9472 15.73256563  1301
STARLINK-5043           
1 53894U 22119J   22285.58334491  .00131311  00000+0  92624-3 0  9995
2 53894  53.2168 165.8038 0001098  93.7968 212.8820 15.73180407  1300
STARLINK-5032           
1 53895U 22119K   22285.58334491  .00027870  00000+0  20211-3 0  9993
2 53895  53.2168 165.7996 0000935  97.9043 210.5631 15.73226209  1308
STARLINK-5037           
1 53896U 22119L   22285.58334491  .00052055  00000+0  37263-3 0  9992
2 53896  53.2172 165.7986 0004039 284.9549  24.7013 15.73216906  1303
STARLINK-5035           
1 53897U 22119M   22285.58334491  .00083960  00000+0  59667-3 0  9994
2 53897  53.2171 165.8025 0001528 140.2354 167.0414 15.73199909  1305
STARLINK-5044           
1 53898U 22119N   22285.58334491  .00207794  00000+0  14507-2 0  9991
2 53898  53.2170 165.7953 0001404  39.5996 271.8168 15.73166681  1300
STARLINK-5042           
1 53899U 22119P   22285.58334491 -.00033473  00000+0 -23473-3 0  9998
2 53899  53.2171 165.7963 0001203  50.9887 259.9002 15.73229935  1302
STARLINK-5045           
1 53900U 22119Q   22285.58334491  .00037038  00000+0  26728-3 0  9996
2 53900  53.2177 165.7916 0001555  37.1018 275.5917 15.73188326  1309
STARLINK-5024           
1 53901U 22119R   22285.58334491  .00048080  00000+0  34551-3 0  9999
2 53901  53.2172 165.7937 0001058 103.7951 206.5406 15.73167473  1309
STARLINK-5021           
1 53902U 22119S   22284.16667824  .00300409  00000+0  20742-2 0  9994
2 53902  53.2172 172.7910 0001093  89.3094 118.4046 15.73143355  1309
STARLINK-5022           
1 53903U 22119T   22285.58334491  .00002581  00000+0  22776-4 0  9994
2 53903  53.2171 165.7937 0000943  91.1065 220.9575 15.73224341  1303
STARLINK-4787           
1 53904U 22119U   22285.58334491  .00224006  00000+0  15618-2 0  9998
2 53904  53.2168 165.7897 0001048  86.7384 226.4878 15.73147181  1309
STARLINK-5003           
1 53905U 22119V   22285.58334491 -.00105654  00000+0 -75561-3 0  9992
2 53905  53.2169 165.7863 0000928 101.6925 213.3589 15.73270015  1305
STARLINK-5054           
1 53906U 22119W   22285.58334491 -.00113814  00000+0 -81929-3 0  9995
2 53906  53.2171 165.7834 0001591  36.6347 280.4015 15.73148678  1307
STARLINK-5063           
1 53907U 22119X   22285.58334491  .00011937  00000+0  89291-4 0  9998
2 53907  53.2171 165.7901 0001567  36.8951 276.9662 15.73214442  1300
STARLINK-5057           
1 53908U 22119Y   22285.58334491  .00119089  00000+0  84221-3 0  9993
2 53908  53.2172 165.7832 0001106 105.1626 212.2786 15.73165304  3206
STARLINK-4796           
1 53909U 22119Z   22285.58334491  .00076131  00000+0  54221-3 0  9991
2 53909  53.2168 165.7878 0001126  63.5812 250.8724 15.73189045  1305
STARLINK-5056           
1 53910U 22119AA  22285.58334491 -.00054040  00000+0 -38225-3 0  9996
2 53910  53.2169 165.7787 0000627 104.4820 214.7310 15.73253245  1300
STARLINK-5048           
1 53911U 22119AB  22285.58334491  .00019538  00000+0  14318-3 0  9995
2 53911  53.2170 165.7841 0001072 104.2061 212.0270 15.73219748  1300
STARLINK-5059           
1 53912U 22119AC  22285.58334491  .00216472  00000+0  15104-2 0  9995
2 53912  53.2172 165.7806 0001281  61.5141 257.0732 15.73153176  1304
STARLINK-5053           
1 53913U 22119AD  22285.58334491  .00204762  00000+0  14309-2 0  9991
2 53913  53.2171 165.7766 0000969  99.1580 221.2229 15.73153786  1306
STARLINK-5040           
1 53914U 22119AE  22285.58334491  .00134964  00000+0  95004-3 0  9990
2 53914  53.2173 165.7754 0001006  87.9860 232.9417 15.73215684  1309
STARLINK-5017           
1 53915U 22119AF  22285.58334491 -.00018971  00000+0 -13114-3 0  9994
2 53915  53.2172 165.7813 0000967 104.9626 213.1369 15.73187098  1304
STARLINK-5051           
1 53916U 22119AG  22285.58334491  .00026677  00000+0  19385-3 0  9991
2 53916  53.2188 165.6886 0001478 141.7675 230.1894 15.73204586  1306
STARLINK-5036           
1 53917U 22119AH  22285.58334491  .00133037  00000+0  93791-3 0  9994
2 53917  53.2173 165.7780 0000984  93.7380 226.0439 15.73186810  1303
STARLINK-5012           
1 53918U 22119AJ  22285.58334491 -.00110835  00000+0 -79174-3 0  9997
2 53918  53.2172 165.7710 0000974  98.4540 223.6816 15.73317893  1304
STARLINK-5023           
1 53919U 22119AK  22285.58334491  .00190121  00000+0  13301-2 0  9991
2 53919  53.2170 165.7715 0000891  82.9249 239.8201 15.73173707  1301
STARLINK-5025           
1 53920U 22119AL  22285.58334491  .00136635  00000+0  96363-3 0  9993
2 53920  53.2171 165.7672 0001050  91.0785 234.1003 15.73165250  1302
STARLINK-5005           
1 53921U 22119AM  22285.58334491  .00487621  12066-3  67136-3 0  9993
2 53921  53.2207 163.8838 0037553 112.6622  52.6332 16.04050228  1304
STARLINK-5002           
1 53922U 22119AN  22285.58334491 -.00047860  00000+0 -33785-3 0  9997
2 53922  53.2172 165.7661 0001187 105.1271 220.6486 15.73246857  1309
STARLINK-5004           
1 53923U 22119AP  22285.58334491 -.00065820  00000+0 -46727-3 0  9994
2 53923  53.2171 165.7687 0001291  90.0512 234.5441 15.73247528  1304
STARLINK-5001           
1 53924U 22119AQ  22285.58334491  .00028025  00000+0  20333-3 0  9994
2 53924  53.2172 165.7627 0000898  89.4479 238.1180 15.73211260  1300
STARLINK-5011           
1 53925U 22119AR  22285.58334491  .00069617  00000+0  49572-3 0  9993
2 53925  53.2174 165.7716 0001098  74.6473 248.6880 15.73229429  1304
STARLINK-5014           
1 53926U 22119AS  22285.58334491  .00161249  00000+0  11335-2 0  9993
2 53926  53.2171 165.7612 0000927 120.4292 207.7278 15.73156845  1304
STARLINK-5008           
1 53927U 22119AT  22285.58334491  .00123285  00000+0  87143-3 0  9993
2 53927  53.2171 165.7629 0001108  98.7241 228.2583 15.73161645  1307
STARLINK-5009           
1 53928U 22119AU  22285.58334491  .00157966  00000+0  11102-2 0  9998
2 53928  53.2171 165.7598 0001108  99.2232 229.5066 15.73172561  1308
STARLINK-5018           
1 53929U 22119AV  22285.58334491 -.00068896  00000+0 -48958-3 0  9994
2 53929  53.2168 165.7648 0001717  33.6992 292.6947 15.73241872  1303
STARLINK-5010           
1 53930U 22119AW  22285.58334491  .00140889  00000+0  99274-3 0  9994
2 53930  53.2174 165.7575 0001115 100.6759 229.2598 15.73171237  1304
STARLINK-5015           
1 53931U 22119AX  22285.58334491 -.00019424  00000+0 -13419-3 0  9994
2 53931  53.2168 165.7545 0001180  63.6784 267.4868 15.73218484  1303
STARLINK-4772           
1 53932U 22119AY  22285.58334491  .00047345  00000+0  33999-3 0  9991
2 53932  53.2172 165.7568 0001339  68.6253 261.9409 15.73190472  1302
STARLINK-4782           
1 53933U 22119AZ  22285.58334491 -.00034850  00000+0 -24461-3 0  9995
2 53933  53.2171 165.7579 0001069 106.5166 222.8531 15.73229873  1309
STARLINK-4775           
1 53934U 22119BA  22285.58334491  .00224672  00000+0  15658-2 0  9994
2 53934  53.2171 165.7535 0001019  86.9318 244.7613 15.73154766  1309
STARLINK-5000           
1 53935U 22119BB  22285.58334491  .00100709  00000+0  71335-3 0  9994
2 53935  53.2172 165.7518 0001129 101.8694 231.0259 15.73201961  1303
STARLINK-4791           
1 53936U 22119BC  22285.58334491  .00048240  00000+0  34518-3 0  9998
2 53936  53.2172 165.7527 0001229  99.8518 232.3826 15.73266556  1301
STARLINK-4765           
1 53937U 22119BD  22285.58334491 -.00037384  00000+0 -26254-3 0  9996
2 53937  53.2174 165.7495 0001308  39.9124 293.5980 15.73251617  1306
2022-118C               
1 53942U 22118C   22285.62773115  .00044540  25787-5  54701-3 0  9999
2 53942  97.5247 292.2216 0269665 302.6638  54.8840 15.27577834  2690
YAOGAN-36 01A           
1 53943U 22120A   22285.47266097  .00015022  00000+0  59538-3 0  9993
2 53943  34.9986  85.2073 0007335  55.9636 353.6258 15.24542728  2433
CZ-2D DEB               
1 53944U 22120B   22285.46315697  .00040289  00000+0  15413-2 0  9990
2 53944  34.9990  85.1843 0008119  43.2174 345.6751 15.25548682  2436
